CCSDS_OMM_VERS = 2.0
CREATION_DATE  = 
ORIGINATOR     = 

OBJECT_NAME    = COSMOS 1933
OBJECT_ID      = 1988-020A
CENTER_NAME    = EARTH
REF_FRAME      = TEME
TIME_SYSTEM    = UTC
MEAN_ELEMENT_THEORY = SGP/SGP4

EPOCH          = 2026-03-05T23:12:08.884800
MEAN_MOTION    = 15.17942041
ECCENTRICITY   = .00035312
INCLINATION    = 82.5097
RA_OF_ASC_NODE = 254.5962
ARG_OF_PERICENTER = 196.2641
MEAN_ANOMALY   = 163.8480

EPHEMERIS_TYPE = 0
CLASSIFICATION_TYPE = U
NORAD_CAT_ID   = 18958
ELEMENT_SET_NO = 999
REV_AT_EPOCH   = 4966
BSTAR          = .23238632E-3
MEAN_MOTION_DOT = .4746E-4
MEAN_MOTION_DDOT = 0

CCSDS_OMM_VERS = 2.0
CREATION_DATE  = 
ORIGINATOR     = 

OBJECT_NAME    = SL-3 R/B
OBJECT_ID      = 1988-032B
CENTER_NAME    = EARTH
REF_FRAME      = TEME
TIME_SYSTEM    = UTC
MEAN_ELEMENT_THEORY = SGP/SGP4

EPOCH          = 2026-03-06T05:50:14.539776
MEAN_MOTION    = 15.19859136
ECCENTRICITY   = .00242255
INCLINATION    = 97.5190
RA_OF_ASC_NODE = 48.5062
ARG_OF_PERICENTER = 244.3864
MEAN_ANOMALY   = 115.4868

EPHEMERIS_TYPE = 0
CLASSIFICATION_TYPE = U
NORAD_CAT_ID   = 19046
ELEMENT_SET_NO = 999
REV_AT_EPOCH   = 5158
BSTAR          = .31796266E-3
MEAN_MOTION_DOT = .6803E-4
MEAN_MOTION_DDOT = 0

CCSDS_OMM_VERS = 2.0
CREATION_DATE  = 
ORIGINATOR     = 

OBJECT_NAME    = SL-16 R/B
OBJECT_ID      = 1988-039B
CENTER_NAME    = EARTH
REF_FRAME      = TEME
TIME_SYSTEM    = UTC
MEAN_ELEMENT_THEORY = SGP/SGP4

EPOCH          = 2026-03-06T07:35:23.735616
MEAN_MOTION    = 14.19615649
ECCENTRICITY   = .00225692
INCLINATION    = 71.0131
RA_OF_ASC_NODE = 75.6814
ARG_OF_PERICENTER = 339.2734
MEAN_ANOMALY   = 20.7473

EPHEMERIS_TYPE = 0
CLASSIFICATION_TYPE = U
NORAD_CAT_ID   = 19120
ELEMENT_SET_NO = 999
REV_AT_EPOCH   = 95790
BSTAR          = -.35906862E-4
MEAN_MOTION_DOT = -.124E-5
MEAN_MOTION_DDOT = 0

CCSDS_OMM_VERS = 2.0
CREATION_DATE  = 
ORIGINATOR     = 

OBJECT_NAME    = COSMOS 1953
OBJECT_ID      = 1988-050A
CENTER_NAME    = EARTH
REF_FRAME      = TEME
TIME_SYSTEM    = UTC
MEAN_ELEMENT_THEORY = SGP/SGP4

EPOCH          = 2026-03-06T06:53:04.690176
MEAN_MOTION    = 15.28451246
ECCENTRICITY   = .00123816
INCLINATION    = 82.5105
RA_OF_ASC_NODE = 161.6679
ARG_OF_PERICENTER = 133.4192
MEAN_ANOMALY   = 226.8080

EPHEMERIS_TYPE = 0
CLASSIFICATION_TYPE = U
NORAD_CAT_ID   = 19210
ELEMENT_SET_NO = 999
REV_AT_EPOCH   = 3726
BSTAR          = .35972684E-3
MEAN_MOTION_DOT = .10016E-3
MEAN_MOTION_DDOT = 0

CCSDS_OMM_VERS = 2.0
CREATION_DATE  = 
ORIGINATOR     = 

OBJECT_NAME    = SL-8 R/B
OBJECT_ID      = 1988-053B
CENTER_NAME    = EARTH
REF_FRAME      = TEME
TIME_SYSTEM    = UTC
MEAN_ELEMENT_THEORY = SGP/SGP4

EPOCH          = 2026-03-06T06:00:09.435744
MEAN_MOTION    = 14.38913481
ECCENTRICITY   = .0021364
INCLINATION    = 74.0465
RA_OF_ASC_NODE = 118.8069
ARG_OF_PERICENTER = 298.5877
MEAN_ANOMALY   = 124.2349

EPHEMERIS_TYPE = 0
CLASSIFICATION_TYPE = U
NORAD_CAT_ID   = 19257
ELEMENT_SET_NO = 999
REV_AT_EPOCH   = 97610
BSTAR          = .12291541E-3
MEAN_MOTION_DOT = .353E-5
MEAN_MOTION_DDOT = 0

CCSDS_OMM_VERS = 2.0
CREATION_DATE  = 
ORIGINATOR     = 

OBJECT_NAME    = COSMOS 1975
OBJECT_ID      = 1988-093A
CENTER_NAME    = EARTH
REF_FRAME      = TEME
TIME_SYSTEM    = UTC
MEAN_ELEMENT_THEORY = SGP/SGP4

EPOCH          = 2026-03-06T04:31:35.146272
MEAN_MOTION    = 15.28008132
ECCENTRICITY   = .00118677
INCLINATION    = 82.5188
RA_OF_ASC_NODE = 121.2001
ARG_OF_PERICENTER = 175.1443
MEAN_ANOMALY   = 184.9914

EPHEMERIS_TYPE = 0
CLASSIFICATION_TYPE = U
NORAD_CAT_ID   = 19573
ELEMENT_SET_NO = 999
REV_AT_EPOCH   = 1887
BSTAR          = .30187089E-3
MEAN_MOTION_DOT = .8295E-4
MEAN_MOTION_DDOT = 0

CCSDS_OMM_VERS = 2.0
CREATION_DATE  = 
ORIGINATOR     = 

OBJECT_NAME    = SL-14 R/B
OBJECT_ID      = 1988-093B
CENTER_NAME    = EARTH
REF_FRAME      = TEME
TIME_SYSTEM    = UTC
MEAN_ELEMENT_THEORY = SGP/SGP4

EPOCH          = 2026-03-06T00:36:54.853632
MEAN_MOTION    = 14.85650770
ECCENTRICITY   = .0021987
INCLINATION    = 82.5298
RA_OF_ASC_NODE = 45.4835
ARG_OF_PERICENTER = 52.9882
MEAN_ANOMALY   = 10.2591

EPHEMERIS_TYPE = 0
CLASSIFICATION_TYPE = U
NORAD_CAT_ID   = 19574
ELEMENT_SET_NO = 999
REV_AT_EPOCH   = 47
BSTAR          = .80115506E-4
MEAN_MOTION_DOT = .721E-5
MEAN_MOTION_DDOT = 0

CCSDS_OMM_VERS = 2.0
CREATION_DATE  = 
ORIGINATOR     = 

OBJECT_NAME    = SL-16 R/B
OBJECT_ID      = 1988-102B
CENTER_NAME    = EARTH
REF_FRAME      = TEME
TIME_SYSTEM    = UTC
MEAN_ELEMENT_THEORY = SGP/SGP4

EPOCH          = 2026-03-06T05:33:57.091392
MEAN_MOTION    = 14.16150090
ECCENTRICITY   = .00137282
INCLINATION    = 71.0000
RA_OF_ASC_NODE = 158.7724
ARG_OF_PERICENTER = 6.9654
MEAN_ANOMALY   = 353.1658

EPHEMERIS_TYPE = 0
CLASSIFICATION_TYPE = U
NORAD_CAT_ID   = 19650
ELEMENT_SET_NO = 999
REV_AT_EPOCH   = 92640
BSTAR          = .11301154E-3
MEAN_MOTION_DOT = .176E-5
MEAN_MOTION_DDOT = 0

CCSDS_OMM_VERS = 2.0
CREATION_DATE  = 
ORIGINATOR     = 

OBJECT_NAME    = INTERCOSMOS 24
OBJECT_ID      = 1989-080A
CENTER_NAME    = EARTH
REF_FRAME      = TEME
TIME_SYSTEM    = UTC
MEAN_ELEMENT_THEORY = SGP/SGP4

EPOCH          = 2026-03-06T03:34:16.993056
MEAN_MOTION    = 12.59551016
ECCENTRICITY   = .118676
INCLINATION    = 82.6030
RA_OF_ASC_NODE = 106.7103
ARG_OF_PERICENTER = 301.0471
MEAN_ANOMALY   = 47.9344

EPHEMERIS_TYPE = 0
CLASSIFICATION_TYPE = U
NORAD_CAT_ID   = 20261
ELEMENT_SET_NO = 999
REV_AT_EPOCH   = 66635
BSTAR          = .24600761E-3
MEAN_MOTION_DOT = .827E-5
MEAN_MOTION_DDOT = 0

CCSDS_OMM_VERS = 2.0
CREATION_DATE  = 
ORIGINATOR     = 

OBJECT_NAME    = SL-14 R/B
OBJECT_ID      = 1989-080C
CENTER_NAME    = EARTH
REF_FRAME      = TEME
TIME_SYSTEM    = UTC
MEAN_ELEMENT_THEORY = SGP/SGP4

EPOCH          = 2026-03-06T06:36:00.728352
MEAN_MOTION    = 12.50488848
ECCENTRICITY   = .12304423
INCLINATION    = 82.5973
RA_OF_ASC_NODE = 175.3776
ARG_OF_PERICENTER = 192.5523
MEAN_ANOMALY   = 164.2146

EPHEMERIS_TYPE = 0
CLASSIFICATION_TYPE = U
NORAD_CAT_ID   = 20262
ELEMENT_SET_NO = 999
REV_AT_EPOCH   = 65972
BSTAR          = .26347529E-3
MEAN_MOTION_DOT = .886E-5
MEAN_MOTION_DDOT = 0

CCSDS_OMM_VERS = 2.0
CREATION_DATE  = 
ORIGINATOR     = 

OBJECT_NAME    = DELTA 1 R/B
OBJECT_ID      = 1989-089B
CENTER_NAME    = EARTH
REF_FRAME      = TEME
TIME_SYSTEM    = UTC
MEAN_ELEMENT_THEORY = SGP/SGP4

EPOCH          = 2026-03-06T04:07:43.210560
MEAN_MOTION    = 14.50659843
ECCENTRICITY   = .00702545
INCLINATION    = 97.0707
RA_OF_ASC_NODE = 273.1702
ARG_OF_PERICENTER = 132.9381
MEAN_ANOMALY   = 227.7741

EPHEMERIS_TYPE = 0
CLASSIFICATION_TYPE = U
NORAD_CAT_ID   = 20323
ELEMENT_SET_NO = 999
REV_AT_EPOCH   = 89522
BSTAR          = .12704769E-3
MEAN_MOTION_DOT = .48E-5
MEAN_MOTION_DDOT = 0

CCSDS_OMM_VERS = 2.0
CREATION_DATE  = 
ORIGINATOR     = 

OBJECT_NAME    = ARIANE 40 R/B
OBJECT_ID      = 1990-005H
CENTER_NAME    = EARTH
REF_FRAME      = TEME
TIME_SYSTEM    = UTC
MEAN_ELEMENT_THEORY = SGP/SGP4

EPOCH          = 2026-03-06T03:07:55.123104
MEAN_MOTION    = 14.39867457
ECCENTRICITY   = .00096298
INCLINATION    = 98.3091
RA_OF_ASC_NODE = 125.8980
ARG_OF_PERICENTER = 209.5016
MEAN_ANOMALY   = 150.5630

EPHEMERIS_TYPE = 0
CLASSIFICATION_TYPE = U
NORAD_CAT_ID   = 20443
ELEMENT_SET_NO = 999
REV_AT_EPOCH   = 89229
BSTAR          = .11400987E-3
MEAN_MOTION_DOT = .316E-5
MEAN_MOTION_DDOT = 0

