COSMOS 1933             
1 18958U 88020A   26064.96676950  .00004746  00000+0  23239-3 0  9997
2 18958  82.5097 254.5962 0003531 196.2641 163.8480 15.17942041 49667
SL-3 R/B                
1 19046U 88032B   26065.24322384  .00006803  00000+0  31796-3 0  9993
2 19046  97.5190  48.5062 0024225 244.3864 115.4868 15.19859136 51584
SL-16 R/B               
1 19120U 88039B   26065.31624694 -.00000124  00000+0 -35907-4 0  9991
2 19120  71.0131  75.6814 0022569 339.2734  20.7473 14.19615649957903
COSMOS 1953             
1 19210U 88050A   26065.28685984  .00010016  00000+0  35973-3 0  9990
2 19210  82.5105 161.6679 0012381 133.4192 226.8080 15.28451246 37262
SL-8 R/B                
1 19257U 88053B   26065.25010921  .00000353  00000+0  12292-3 0  9996
2 19257  74.0465 118.8069 0021364 298.5877 124.2349 14.38913481976107
COSMOS 1975             
1 19573U 88093A   26065.18860123  .00008295  00000+0  30187-3 0  9996
2 19573  82.5188 121.2001 0011867 175.1443 184.9914 15.28008132 18874
SL-14 R/B               
1 19574U 88093B   26065.02563488  .00000721  00000+0  80116-4 0  9998
2 19574  82.5298  45.4835 0021987  52.9882  10.2591 14.85650770   474
SL-16 R/B               
1 19650U 88102B   26065.23191078  .00000176  00000+0  11301-3 0  9992
2 19650  71.0000 158.7724 0013728   6.9654 353.1658 14.16150090926405
INTERCOSMOS 24          
1 20261U 89080A   26065.14880779  .00000827  00000+0  24601-3 0  9991
2 20261  82.6030 106.7103 1186760 301.0471  47.9344 12.59551016666357
SL-14 R/B               
1 20262U 89080C   26065.27500843  .00000886  00000+0  26348-3 0  9992
2 20262  82.5973 175.3776 1230442 192.5523 164.2146 12.50488848659728
DELTA 1 R/B             
1 20323U 89089B   26065.17202790  .00000480  00000+0  12705-3 0  9990
2 20323  97.0707 273.1702 0070254 132.9381 227.7741 14.50659843895220
ARIANE 40 R/B           
1 20443U 90005H   26065.13049911  .00000316  00000+0  11401-3 0  9993
2 20443  98.3091 125.8980 0009629 209.5016 150.5630 14.39867457892291
